[{"OBJECT_NAME":"ONEWEB-0398","OBJECT_ID":"2021-132K","EPOCH":"2025-08-25T13:28:03.016128","MEAN_MOTION":13.11415331,"ECCENTRICITY":0.00013419,"INCLINATION":87.8781,"RA_OF_ASC_NODE":79.9558,"ARG_OF_PERICENTER":93.9688,"MEAN_ANOMALY":266.1593,"EPHEMERIS_TYPE":0,"CLASSIFICATION_TYPE":"U","NORAD_CAT_ID":50478,"ELEMENT_SET_NO":999,"REV_AT_EPOCH":17686,"BSTAR":0.0013946899,"MEAN_MOTION_DOT":5.07e-6,"MEAN_MOTION_DDOT":0},{"OBJECT_NAME":"ONEWEB-0399","OBJECT_ID":"2021-132L","EPOCH":"2025-08-25T13:08:29.268672","MEAN_MOTION":13.11425732,"ECCENTRICITY":0.00022445,"INCLINATION":87.8774,"RA_OF_ASC_NODE":79.9817,"ARG_OF_PERICENTER":89.669,"MEAN_ANOMALY":270.4695,"EPHEMERIS_TYPE":0,"CLASSIFICATION_TYPE":"U","NORAD_CAT_ID":50479,"ELEMENT_SET_NO":999,"REV_AT_EPOCH":17685,"BSTAR":-0.0065038444,"MEAN_MOTION_DOT":-2.292e-5,"MEAN_MOTION_DDOT":0},{"OBJECT_NAME":"ONEWEB-0400","OBJECT_ID":"2021-132M","EPOCH":"2025-08-25T11:16:28.392384","MEAN_MOTION":13.18687223,"ECCENTRICITY":0.00016209,"INCLINATION":87.9154,"RA_OF_ASC_NODE":34.1678,"ARG_OF_PERICENTER":98.0829,"MEAN_ANOMALY":262.0487,"EPHEMERIS_TYPE":0,"CLASSIFICATION_TYPE":"U","NORAD_CAT_ID":50480,"ELEMENT_SET_NO":999,"REV_AT_EPOCH":18263,"BSTAR":-0.00035743474,"MEAN_MOTION_DOT":-1.28e-6,"MEAN_MOTION_DDOT":0},{"OBJECT_NAME":"ONEWEB-0401","OBJECT_ID":"2021-132N","EPOCH":"2025-08-25T10:31:22.712448","MEAN_MOTION":13.18686018,"ECCENTRICITY":0.000191,"INCLINATION":87.9156,"RA_OF_ASC_NODE":34.1702,"ARG_OF_PERICENTER":88.4849,"MEAN_ANOMALY":271.6502,"EPHEMERIS_TYPE":0,"CLASSIFICATION_TYPE":"U","NORAD_CAT_ID":50481,"ELEMENT_SET_NO":999,"REV_AT_EPOCH":18263,"BSTAR":0.00022052265,"MEAN_MOTION_DOT":1.0e-6,"MEAN_MOTION_DDOT":0},{"OBJECT_NAME":"ONEWEB-0402","OBJECT_ID":"2021-132P","EPOCH":"2025-08-25T11:28:21.528480","MEAN_MOTION":13.18683232,"ECCENTRICITY":0.00020891,"INCLINATION":87.9155,"RA_OF_ASC_NODE":34.1559,"ARG_OF_PERICENTER":77.5402,"MEAN_ANOMALY":282.5964,"EPHEMERIS_TYPE":0,"CLASSIFICATION_TYPE":"U","NORAD_CAT_ID":50482,"ELEMENT_SET_NO":999,"REV_AT_EPOCH":18266,"BSTAR":8.3903916e-5,"MEAN_MOTION_DOT":4.6e-7,"MEAN_MOTION_DDOT":0},{"OBJECT_NAME":"ONEWEB-0403","OBJECT_ID":"2021-132Q","EPOCH":"2025-08-25T12:03:59.975136","MEAN_MOTION":13.18680078,"ECCENTRICITY":0.0001741,"INCLINATION":87.9156,"RA_OF_ASC_NODE":34.1698,"ARG_OF_PERICENTER":103.1833,"MEAN_ANOMALY":256.9494,"EPHEMERIS_TYPE":0,"CLASSIFICATION_TYPE":"U","NORAD_CAT_ID":50483,"ELEMENT_SET_NO":999,"REV_AT_EPOCH":18262,"BSTAR":0.0030485513,"MEAN_MOTION_DOT":1.215e-5,"MEAN_MOTION_DDOT":0},{"OBJECT_NAME":"ONEWEB-0404","OBJECT_ID":"2021-132R","EPOCH":"2025-08-25T14:31:30.595872","MEAN_MOTION":13.11417959,"ECCENTRICITY":0.0001969,"INCLINATION":87.878,"RA_OF_ASC_NODE":79.976,"ARG_OF_PERICENTER":94.9458,"MEAN_ANOMALY":265.1895,"EPHEMERIS_TYPE":0,"CLASSIFICATION_TYPE":"U","NORAD_CAT_ID":50484,"ELEMENT_SET_NO":999,"REV_AT_EPOCH":17695,"BSTAR":-0.00041107403,"MEAN_MOTION_DOT":-1.33e-6,"MEAN_MOTION_DDOT":0},{"OBJECT_NAME":"ONEWEB-0405","OBJECT_ID":"2021-132S","EPOCH":"2025-08-25T12:25:21.739008","MEAN_MOTION":13.18686909,"ECCENTRICITY":0.00020224,"INCLINATION":87.9154,"RA_OF_ASC_NODE":34.1526,"ARG_OF_PERICENTER":88.4483,"MEAN_ANOMALY":271.6881,"EPHEMERIS_TYPE":0,"CLASSIFICATION_TYPE":"U","NORAD_CAT_ID":50485,"ELEMENT_SET_NO":999,"REV_AT_EPOCH":18302,"BSTAR":0.00015735777,"MEAN_MOTION_DOT":7.5e-7,"MEAN_MOTION_DDOT":0},{"OBJECT_NAME":"ONEWEB-0406","OBJECT_ID":"2021-132T","EPOCH":"2025-08-25T12:11:07.400256","MEAN_MOTION":13.18687601,"ECCENTRICITY":0.00018598,"INCLINATION":87.9155,"RA_OF_ASC_NODE":34.1776,"ARG_OF_PERICENTER":111.784,"MEAN_ANOMALY":248.349,"EPHEMERIS_TYPE":0,"CLASSIFICATION_TYPE":"U","NORAD_CAT_ID":50486,"ELEMENT_SET_NO":999,"REV_AT_EPOCH":18265,"BSTAR":7.271072e-5,"MEAN_MOTION_DOT":4.2e-7,"MEAN_MOTION_DDOT":0},{"OBJECT_NAME":"ONEWEB-0407","OBJECT_ID":"2021-132U","EPOCH":"2025-08-25T12:01:38.132256","MEAN_MOTION":13.18685479,"ECCENTRICITY":0.00019136,"INCLINATION":87.9155,"RA_OF_ASC_NODE":34.164,"ARG_OF_PERICENTER":92.5657,"MEAN_ANOMALY":267.5694,"EPHEMERIS_TYPE":0,"CLASSIFICATION_TYPE":"U","NORAD_CAT_ID":50487,"ELEMENT_SET_NO":999,"REV_AT_EPOCH":18259,"BSTAR":5.705818e-6,"MEAN_MOTION_DOT":1.5e-7,"MEAN_MOTION_DDOT":0},{"OBJECT_NAME":"ONEWEB-0409","OBJECT_ID":"2021-132V","EPOCH":"2025-08-25T14:29:04.111584","MEAN_MOTION":13.1141966,"ECCENTRICITY":0.00018068,"INCLINATION":87.8784,"RA_OF_ASC_NODE":79.9354,"ARG_OF_PERICENTER":95.3174,"MEAN_ANOMALY":264.816,"EPHEMERIS_TYPE":0,"CLASSIFICATION_TYPE":"U","NORAD_CAT_ID":50488,"ELEMENT_SET_NO":999,"REV_AT_EPOCH":17684,"BSTAR":-0.0016406317,"MEAN_MOTION_DOT":-5.69e-6,"MEAN_MOTION_DDOT":0},{"OBJECT_NAME":"ONEWEB-0412","OBJECT_ID":"2021-132W","EPOCH":"2025-08-25T11:45:00.861120","MEAN_MOTION":13.18685648,"ECCENTRICITY":0.00020037,"INCLINATION":87.9152,"RA_OF_ASC_NODE":34.1792,"ARG_OF_PERICENTER":85.771,"MEAN_ANOMALY":274.3651,"EPHEMERIS_TYPE":0,"CLASSIFICATION_TYPE":"U","NORAD_CAT_ID":50489,"ELEMENT_SET_NO":999,"REV_AT_EPOCH":18268,"BSTAR":-3.9525154e-5,"MEAN_MOTION_DOT":-3.0e-8,"MEAN_MOTION_DDOT":0},{"OBJECT_NAME":"ONEWEB-0413","OBJECT_ID":"2021-132X","EPOCH":"2025-08-25T11:52:08.321664","MEAN_MOTION":13.18683566,"ECCENTRICITY":0.0001862,"INCLINATION":87.9156,"RA_OF_ASC_NODE":34.1942,"ARG_OF_PERICENTER":82.8034,"MEAN_ANOMALY":277.331,"EPHEMERIS_TYPE":0,"CLASSIFICATION_TYPE":"U","NORAD_CAT_ID":50490,"ELEMENT_SET_NO":999,"REV_AT_EPOCH":18262,"BSTAR":-2.2833901e-5,"MEAN_MOTION_DOT":4.0e-8,"MEAN_MOTION_DDOT":0},{"OBJECT_NAME":"ONEWEB-0414","OBJECT_ID":"2021-132Y","EPOCH":"2025-08-25T11:30:45.389664","MEAN_MOTION":13.18686099,"ECCENTRICITY":0.00020147,"INCLINATION":87.9153,"RA_OF_ASC_NODE":34.1571,"ARG_OF_PERICENTER":91.7364,"MEAN_ANOMALY":268.3999,"EPHEMERIS_TYPE":0,"CLASSIFICATION_TYPE":"U","NORAD_CAT_ID":50491,"ELEMENT_SET_NO":999,"REV_AT_EPOCH":18265,"BSTAR":0.00021750221,"MEAN_MOTION_DOT":9.9e-7,"MEAN_MOTION_DDOT":0},{"OBJECT_NAME":"ONEWEB-0417","OBJECT_ID":"2021-132Z","EPOCH":"2025-08-25T11:42:38.124000","MEAN_MOTION":13.18686457,"ECCENTRICITY":0.00018881,"INCLINATION":87.9157,"RA_OF_ASC_NODE":34.1877,"ARG_OF_PERICENTER":100.7872,"MEAN_ANOMALY":259.3472,"EPHEMERIS_TYPE":0,"CLASSIFICATION_TYPE":"U","NORAD_CAT_ID":50492,"ELEMENT_SET_NO":999,"REV_AT_EPOCH":18263,"BSTAR":-9.3678086e-5,"MEAN_MOTION_DOT":-2.4e-7,"MEAN_MOTION_DDOT":0},{"OBJECT_NAME":"ONEWEB-0418","OBJECT_ID":"2021-132AA","EPOCH":"2025-08-25T11:56:43.495296","MEAN_MOTION":13.1868729,"ECCENTRICITY":0.00020381,"INCLINATION":87.9156,"RA_OF_ASC_NODE":34.1716,"ARG_OF_PERICENTER":107.8143,"MEAN_ANOMALY":252.3212,"EPHEMERIS_TYPE":0,"CLASSIFICATION_TYPE":"U","NORAD_CAT_ID":50493,"ELEMENT_SET_NO":999,"REV_AT_EPOCH":18269,"BSTAR":5.5059121e-5,"MEAN_MOTION_DOT":3.5e-7,"MEAN_MOTION_DDOT":0},{"OBJECT_NAME":"ONEWEB-0419","OBJECT_ID":"2021-132AB","EPOCH":"2025-08-25T12:23:00.031776","MEAN_MOTION":13.18681862,"ECCENTRICITY":0.00016642,"INCLINATION":87.9152,"RA_OF_ASC_NODE":34.1694,"ARG_OF_PERICENTER":105.4943,"MEAN_ANOMALY":254.6373,"EPHEMERIS_TYPE":0,"CLASSIFICATION_TYPE":"U","NORAD_CAT_ID":50494,"ELEMENT_SET_NO":999,"REV_AT_EPOCH":18261,"BSTAR":0.00010684667,"MEAN_MOTION_DOT":5.5e-7,"MEAN_MOTION_DDOT":0}]
