ONEWEB-0398             
1 50478U 21132K   25237.56114602  .00000507  00000+0  13947-2 0  9994
2 50478  87.8781  79.9558 0001341  93.9688 266.1593 13.11415331176863
ONEWEB-0399             
1 50479U 21132L   25237.54756098 -.00002292  00000+0 -65038-2 0  9997
2 50479  87.8774  79.9817 0002244  89.6690 270.4695 13.11425732176858
ONEWEB-0400             
1 50480U 21132M   25237.46977306 -.00000128  00000+0 -35743-3 0  9994
2 50480  87.9154  34.1678 0001620  98.0829 262.0487 13.18687223182637
ONEWEB-0401             
1 50481U 21132N   25237.43845732  .00000100  00000+0  22052-3 0  9996
2 50481  87.9156  34.1702 0001910  88.4849 271.6502 13.18686018182630
ONEWEB-0402             
1 50482U 21132P   25237.47802695  .00000046  00000+0  83904-4 0  9995
2 50482  87.9155  34.1559 0002089  77.5402 282.5964 13.18683232182663
ONEWEB-0403             
1 50483U 21132Q   25237.50277749  .00001215  00000+0  30486-2 0  9990
2 50483  87.9156  34.1698 0001741 103.1833 256.9494 13.18680078182621
ONEWEB-0404             
1 50484U 21132R   25237.60521523 -.00000133  00000+0 -41107-3 0  9997
2 50484  87.8780  79.9760 0001969  94.9458 265.1895 13.11417959176958
ONEWEB-0405             
1 50485U 21132S   25237.51761272  .00000075  00000+0  15736-3 0  9997
2 50485  87.9154  34.1526 0002022  88.4483 271.6881 13.18686909183028
ONEWEB-0406             
1 50486U 21132T   25237.50772454  .00000042  00000+0  72711-4 0  9992
2 50486  87.9155  34.1776 0001859 111.7840 248.3490 13.18687601182656
ONEWEB-0407             
1 50487U 21132U   25237.50113579  .00000015  00000+0  57058-5 0  9998
2 50487  87.9155  34.1640 0001913  92.5657 267.5694 13.18685479182593
ONEWEB-0409             
1 50488U 21132V   25237.60351981 -.00000569  00000+0 -16406-2 0  9996
2 50488  87.8784  79.9354 0001806  95.3174 264.8160 13.11419660176845
ONEWEB-0412             
1 50489U 21132W   25237.48959330 -.00000003  00000+0 -39525-4 0  9997
2 50489  87.9152  34.1792 0002003  85.7710 274.3651 13.18685648182682
ONEWEB-0413             
1 50490U 21132X   25237.49454076  .00000004  00000+0 -22834-4 0  9992
2 50490  87.9156  34.1942 0001862  82.8034 277.3310 13.18683566182620
ONEWEB-0414             
1 50491U 21132Y   25237.47969201  .00000099  00000+0  21750-3 0  9990
2 50491  87.9153  34.1571 0002014  91.7364 268.3999 13.18686099182651
ONEWEB-0417             
1 50492U 21132Z   25237.48794125 -.00000024  00000+0 -93678-4 0  9992
2 50492  87.9157  34.1877 0001888 100.7872 259.3472 13.18686457182630
ONEWEB-0418             
1 50493U 21132AA  25237.49772564  .00000035  00000+0  55059-4 0  9998
2 50493  87.9156  34.1716 0002038 107.8143 252.3212 13.18687290182696
ONEWEB-0419             
1 50494U 21132AB  25237.51597259  .00000055  00000+0  10685-3 0  9995
2 50494  87.9152  34.1694 0001664 105.4943 254.6373 13.18681862182618
